CCSDS_OMM_VERS = 2.0
CREATION_DATE  = 
ORIGINATOR     = 

OBJECT_NAME    = COSMOS 2550
OBJECT_ID      = 2021-056A
CENTER_NAME    = EARTH
REF_FRAME      = TEME
TIME_SYSTEM    = UTC
MEAN_ELEMENT_THEORY = SGP/SGP4

EPOCH          = 2025-11-05T22:46:32.108736
MEAN_MOTION    = 15.33832015
ECCENTRICITY   = .0008361
INCLINATION    = 67.1419
RA_OF_ASC_NODE = 55.2728
ARG_OF_PERICENTER = 269.4533
MEAN_ANOMALY   = 90.5664

EPHEMERIS_TYPE = 0
CLASSIFICATION_TYPE = U
NORAD_CAT_ID   = 48865
ELEMENT_SET_NO = 999
REV_AT_EPOCH   = 24448
BSTAR          = .7756266E-5
MEAN_MOTION_DOT = .63E-6
MEAN_MOTION_DDOT = 0

CCSDS_OMM_VERS = 2.0
CREATION_DATE  = 
ORIGINATOR     = 

OBJECT_NAME    = CZ-2C R/B
OBJECT_ID      = 2022-058K
CENTER_NAME    = EARTH
REF_FRAME      = TEME
TIME_SYSTEM    = UTC
MEAN_ELEMENT_THEORY = SGP/SGP4

EPOCH          = 2025-11-05T19:12:53.969760
MEAN_MOTION    = 15.45901787
ECCENTRICITY   = .00497009
INCLINATION    = 50.1914
RA_OF_ASC_NODE = 231.5689
ARG_OF_PERICENTER = 44.6321
MEAN_ANOMALY   = 315.8631

EPHEMERIS_TYPE = 0
CLASSIFICATION_TYPE = U
NORAD_CAT_ID   = 52794
ELEMENT_SET_NO = 999
REV_AT_EPOCH   = 19091
BSTAR          = .62613999E-3
MEAN_MOTION_DOT = .32191E-3
MEAN_MOTION_DDOT = 0

CCSDS_OMM_VERS = 2.0
CREATION_DATE  = 
ORIGINATOR     = 

OBJECT_NAME    = GSLV R/B
OBJECT_ID      = 2022-138AN
CENTER_NAME    = EARTH
REF_FRAME      = TEME
TIME_SYSTEM    = UTC
MEAN_ELEMENT_THEORY = SGP/SGP4

EPOCH          = 2025-11-05T11:07:52.254336
MEAN_MOTION    = 14.95816545
ECCENTRICITY   = .00191963
INCLINATION    = 87.3861
RA_OF_ASC_NODE = 207.9475
ARG_OF_PERICENTER = 240.2984
MEAN_ANOMALY   = 119.6337

EPHEMERIS_TYPE = 0
CLASSIFICATION_TYPE = U
NORAD_CAT_ID   = 54149
ELEMENT_SET_NO = 999
REV_AT_EPOCH   = 16535
BSTAR          = .3577019E-3
MEAN_MOTION_DOT = .4033E-4
MEAN_MOTION_DDOT = 0

CCSDS_OMM_VERS = 2.0
CREATION_DATE  = 
ORIGINATOR     = 

OBJECT_NAME    = XRISM
OBJECT_ID      = 2023-137A
CENTER_NAME    = EARTH
REF_FRAME      = TEME
TIME_SYSTEM    = UTC
MEAN_ELEMENT_THEORY = SGP/SGP4

EPOCH          = 2025-11-05T13:17:42.170784
MEAN_MOTION    = 15.09750637
ECCENTRICITY   = .00082391
INCLINATION    = 31.0034
RA_OF_ASC_NODE = 5.5312
ARG_OF_PERICENTER = 229.1404
MEAN_ANOMALY   = 130.8521

EPHEMERIS_TYPE = 0
CLASSIFICATION_TYPE = U
NORAD_CAT_ID   = 57800
ELEMENT_SET_NO = 999
REV_AT_EPOCH   = 11900
BSTAR          = .41260777E-3
MEAN_MOTION_DOT = .6923E-4
MEAN_MOTION_DDOT = 0

CCSDS_OMM_VERS = 2.0
CREATION_DATE  = 
ORIGINATOR     = 

OBJECT_NAME    = ACS3
OBJECT_ID      = 2024-077B
CENTER_NAME    = EARTH
REF_FRAME      = TEME
TIME_SYSTEM    = UTC
MEAN_ELEMENT_THEORY = SGP/SGP4

EPOCH          = 2025-11-05T16:10:29.094240
MEAN_MOTION    = 13.83121806
ECCENTRICITY   = .00436005
INCLINATION    = 97.3271
RA_OF_ASC_NODE = 273.4932
ARG_OF_PERICENTER = 30.2843
MEAN_ANOMALY   = 330.0823

EPHEMERIS_TYPE = 0
CLASSIFICATION_TYPE = U
NORAD_CAT_ID   = 59588
ELEMENT_SET_NO = 999
REV_AT_EPOCH   = 7701
BSTAR          = .3814903E-1
MEAN_MOTION_DOT = .42265E-3
MEAN_MOTION_DDOT = 0

