COSMOS 2550             
1 48865U 21056A   25309.94898274  .00000063  00000+0  77563-5 0  9996
2 48865  67.1419  55.2728 0008361 269.4533  90.5664 15.33832015244483
CZ-2C R/B               
1 52794U 22058K   25309.80062465  .00032191  00000+0  62614-3 0  9991
2 52794  50.1914 231.5689 0049700  44.6321 315.8631 15.45901787190917
GSLV R/B                
1 54149U 22138AN  25309.46379924  .00004033  00000+0  35770-3 0  9996
2 54149  87.3861 207.9475 0019196 240.2984 119.6337 14.95816545165355
XRISM                   
1 57800U 23137A   25309.55396031  .00006923  00000+0  41261-3 0  9993
2 57800  31.0034   5.5312 0008239 229.1404 130.8521 15.09750637119007
ACS3                    
1 59588U 24077B   25309.67394785  .00042265  00000+0  38149-1 0  9997
2 59588  97.3271 273.4932 0043600  30.2843 330.0823 13.83121806 77016
